JY1SAT (JO-97)          
1 43803U 18099AX  26068.68634132  .00017774  00000+0  60804-3 0  9996
2 43803  97.4249 131.3625 0004723 256.6795 103.3919 15.30302628398390
STARLINK-2703           
1 48452U 21040AA  26068.56243227  .00000180  00000+0  18217-4 0  9994
2 48452  53.1622 178.7354 0001645 114.5451 245.5721 15.30211430266668
